sat00805
1 00805U 64026B   20046.83226827  .00000268  00000-0  10478-3 0  9990
2 00805  89.9155 358.7196 0030826 275.6843  84.0836 14.27195719859473
